SES-9                   
1 41380U 16013A   19197.40224788 -.00000356  00000-0  00000+0 0  9993
2 41380   0.0534 259.3430 0002326 204.4701  83.2199  1.00270728 12403
EUTELSAT 65 WEST A      
1 41382U 16014A   19197.43944771 -.00000287  00000-0  00000+0 0  9993
2 41382   0.0454  15.9422 0002243  98.7560 272.2773  1.00272534 12302
IRNSS-1F                
1 41384U 16015A   19197.09993112  .00000150  00000-0  00000+0 0  9999
2 41384   2.6721 238.6918 0020657 188.8569 294.5859  1.00267252 12338
BEIDOU IGSO-6           
1 41434U 16021A   19196.60967477 -.00000164  00000-0  00000+0 0  9999
2 41434  56.5664  64.1399 0034625 199.9641 344.0651  1.00285369 12135
IRNSS-1G                
1 41469U 16027A   19197.47569573 -.00000345  00000-0  00000+0 0  9995
2 41469   2.7165 241.0427 0005922 216.7937 136.7950  1.00264649 11847
JCSAT 2B                
1 41471U 16028A   19197.12409547 -.00000177  00000-0  00000+0 0  9998
2 41471   0.0172  50.4321 0002307  60.5265  21.3633  1.00271309 11733
THAICOM 8               
1 41552U 16031A   19197.10917814 -.00000133  00000-0  00000+0 0  9993
2 41552   0.0677  45.7717 0003455  30.9369 334.7698  1.00271271 11437
INTELSAT 31 (IS-31)     
1 41581U 16035A   19197.43382626 -.00000162  00000-0  00000+0 0  9994
2 41581   0.0174 290.7457 0001450 289.4980 134.8382  1.00270785 11356
BEIDOU-2 G7             
1 41586U 16037A   19197.47445138 -.00000365  00000-0  00000+0 0  9998
2 41586   0.9202  43.8700 0006315  22.4269 149.0715  1.00270830 11438
ABS-2A (MONGOLSAT-1)    
1 41588U 16038A   19197.10839302 -.00000096  00000-0  00000+0 0  9992
2 41588   0.0100  17.8160 0002473  24.3381   5.2305  1.00273376 11353
EUTELSAT 117 WEST B     
1 41589U 16038B   19196.74007730 -.00000023  00000-0  00000+0 0  9994
2 41589   0.0092 155.4979 0000256  99.1689 188.0418  1.00271216 11355
BRISAT                  
1 41591U 16039A   19197.50466069 -.00000208  00000-0  00000+0 0  9992
2 41591   0.0210  45.6411 0002385  68.6434 151.9339  1.00269094 11290
ECHOSTAR 18             
1 41592U 16039B   19197.08126264 -.00000293  00000-0  00000+0 0  9990
2 41592   0.0034 119.0573 0001769 351.5948 150.8636  1.00271496 11274
MUOS-5                  
1 41622U 16041A   19197.38105718 -.00000164  00000-0  00000+0 0  9998
2 41622   7.9438 310.7335 0206948 208.6670 166.6774  1.00272241 11725
TIANTONG-1 1            
1 41725U 16048A   19196.89829933 -.00000324  00000-0  00000-0 0  9995
2 41725   3.4724 329.2784 0001471 124.8423 264.0821  1.00272712 10919
JCSAT-16                
1 41729U 16050A   19196.85535432 -.00000368  00000-0  00000-0 0  9994
2 41729   0.0544  85.8360 0001695 129.1243 150.3175  1.00272771 10708
INTELSAT 36 (IS-36)     
1 41747U 16053A   19196.82688149 -.00000036  00000-0  00000-0 0  9990
2 41747   0.0100  30.4385 0001789 340.0626 289.0360  1.00271667 10611
INTELSAT 33E (IS-33E)   
1 41748U 16053B   19197.46439719  .00000038  00000-0  00000+0 0  9999
2 41748   0.0199  60.0229 0002364  56.1360  45.0124  1.00271552 10875
INSAT-3DR               
1 41752U 16054A   19197.53891874 -.00000088  00000-0  00000+0 0  9993
2 41752   0.0867  98.6600 0009896 172.7187 290.6971  1.00272736 10458
GSAT-18                 
1 41793U 16060A   19197.10821854 -.00000088  00000-0  00000+0 0  9999
2 41793   0.0583  99.4983 0003301 352.2815 314.7933  1.00272450 10188
SKY MUSTER 2            
1 41794U 16060B   19196.97881808 -.00000256  00000-0  00000+0 0  9996
2 41794   0.0183  42.3220 0001967  76.4377 311.9602  1.00270728 10223
HIMAWARI-9              
1 41836U 16064A   19196.97803296 -.00000286  00000-0  00000+0 0  9995
2 41836   0.0232 331.8078 0000725 134.1665 320.3884  1.00272895  9956
SHIJIAN-17 (SJ-17)      
1 41838U 16065A   19197.78731059 -.00000276  00000-0  00000+0 0  9994
2 41838   0.8303  96.0989 0002773   0.9837 214.8811  1.00274779  9884
GOES 16                 
1 41866U 16071A   19197.36560878 -.00000259  00000-0  00000+0 0  9996
2 41866   0.0246 138.8316 0000628 340.6858 230.7980  1.00272205  9769
TIANLIAN 1-04           
1 41869U 16072A   19197.53961663 -.00000116  00000-0  00000+0 0  9998
2 41869   1.0052 283.6716 0016648 168.8763 112.7521  1.00274002  9964
WGS F8 (USA 272)        
1 41879U 16075A   19197.50466069 -.00000214  00000-0  00000+0 0  9998
2 41879   0.0417  83.7882 0000529  80.4239 101.3384  1.00266086  9571
FENGYUN 4A              
1 41882U 16077A   19197.54502525 -.00000341  00000-0  00000+0 0  9997
2 41882   0.0252  34.8677 0002915 112.0078  87.9228  1.00279488  9638
ECHOSTAR 19             
1 41893U 16079A   19197.37332868 -.00000150  00000-0  00000+0 0  9991
2 41893   0.0151  60.3665 0001737  49.8252 221.0038  1.00271588  9386
JCSAT-15                
1 41903U 16082A   19197.40259682 -.00000362  00000-0  00000+0 0  9998
2 41903   0.0242  51.4155 0001702  63.5769  73.9480  1.00267796  9439
STAR ONE D1             
1 41904U 16082B   19197.07678399 -.00000222  00000-0  00000+0 0  9997
2 41904   0.0151 309.4682 0002112 150.2812 137.5167  1.00270698  9433
TJS-2                   
1 41911U 17001A   19196.84980001 -.00000354  00000-0  00000-0 0  9994
2 41911   0.1556  93.4257 0006499 277.5252 335.9010  1.00270634  9376
SBIRS GEO-3 (USA 273)   
1 41937U 17004A   19197.49877692  .00000124  00000-0  00000+0 0  9991
2 41937   4.4608 312.2306 0002764 160.7642 201.1948  1.00272814  9256
HISPASAT 36W-1          
1 41942U 17006A   19197.11368941 -.00000256  00000-0  00000+0 0  9997
2 41942   0.0082 317.3815 0001062 153.1610 188.0262  1.00271584  9178
TELKOM 3S               
1 41944U 17007A   19197.47593439 -.00000374  00000-0  00000+0 0  9992
2 41944   0.0158  26.9976 0002629  78.6522 117.7029  1.00272205  8864
INTELSAT 32E (IS-32E)   
1 41945U 17007B   19197.44380950 -.00000280  00000-0  00000+0 0  9998
2 41945   0.0032 123.8297 0000412 295.0688 351.6663  1.00270511  8901
ECHOSTAR 23             
1 42070U 17014A   19196.72436214 -.00000295  00000-0  00000-0 0  9998
2 42070   0.0155  76.3474 0002144  40.6122  25.8862  1.00134929  8595
WGS F9 (USA 275)        
1 42075U 17016A   19197.46378654  .00000062  00000-0  00000+0 0  9990
2 42075   0.0132  53.6338 0000542  67.1250  37.0109  1.00272276  8584
SES-10                  
1 42432U 17017A   19196.71577219 -.00000284  00000-0  00000+0 0  9990
2 42432   0.0121  29.0477 0003273  86.9140   8.0720  1.00271375  8408
CHINASAT 16 (SJ-13)     
1 42662U 17018A   19197.24884550 -.00000363  00000-0  00000+0 0  9992
2 42662   0.0475  82.5452 0005691 139.5889 271.7497  1.00270031  8399
KOREASAT 7              
1 42691U 17023A   19197.04485566 -.00000373  00000-0  00000+0 0  9993
2 42691   0.0091  20.3032 0001729 116.3197 289.0160  1.00270348  8099
SGDC                    
1 42692U 17023B   19196.39423695 -.00000261  00000-0  00000-0 0  9993
2 42692   0.0100  37.9018 0002457  73.6310 248.4771  1.00272283  8075
GSAT-9                  
1 42695U 17024A   19197.06073663 -.00000297  00000-0  00000+0 0  9996
2 42695   0.0384 109.0457 0002134  10.1213 293.6231  1.00271148  8083
INMARSAT 5-F4           
1 42698U 17025A   19197.46369931  .00000064  00000-0  00000+0 0  9991
2 42698   0.0284  59.1387 0000950 130.0100 328.2834  1.00271519  7910
SES-15                  
1 42709U 17026A   19197.52539931  .00000049  00000-0  00000+0 0  9994
2 42709   0.0162   2.6592 0000903 125.5700 225.8178  1.00271968  8835
QZS-2  (MICHIBIKI-2)    
1 42738U 17028A   19196.54878410 -.00000204  00000-0  00000+0 0  9991
2 42738  43.5535 279.1356 0754655 269.3420  81.8379  1.00283142  7781
VIASAT-2                
1 42740U 17029A   19197.43848813 -.00000276  00000-0  00000+0 0  9997
2 42740   0.0285  59.6562 0000704  81.3326 240.9257  1.00271417  7842
EUTELSAT 172B           
1 42741U 17029B   19197.55826069 -.00000017  00000-0  00000+0 0  9993
2 42741   0.0238  89.5301 0000266 350.0948 227.4292  1.00271745  8353
GSAT-19                 
1 42747U 17031A   19196.81586139  .00000113  00000-0  00000-0 0  9998
2 42747   0.0393 279.0049 0006264 159.5099 196.4418  1.00274152  7785
ECHOSTAR 21             
1 42749U 17032A   19197.09548208  .00000061  00000-0  00000+0 0  9998
2 42749   6.1602 314.5747 0002479 158.1476 225.5326  1.00271751  7778
CHINASAT 9A (ZX 9A)     
1 42763U 17035A   19196.89838656 -.00000324  00000-0  00000-0 0  9997
2 42763   0.0293 128.3806 0003416 337.1335 252.7842  1.00272935  8293
BULGARIASAT-1           
1 42801U 17038A   19197.26796958 -.00000000  00000-0  00000+0 0  9993
2 42801   0.0288  73.5796 0002646  52.5087 266.0762  1.00270978  7568
HELLAS-SAT 3            
1 42814U 17040A   19197.46020987  .00000141  00000-0  00000+0 0  9999
2 42814   0.0424  40.8173 0003922  32.3698  65.4893  1.00275004  7530
GSAT-17                 
1 42815U 17040B   19197.11214417 -.00000270  00000-0  00000+0 0  9999
2 42815   0.0845 274.9867 0001428 350.1859 162.3990  1.00274006  7522
INTELSAT 35E (IS-35E)   
1 42818U 17041A   19197.44546699 -.00000249  00000-0  00000+0 0  9995
2 42818   0.0516 225.8654 0002019 247.1998 306.7883  1.00271938  7497
COSMOS 2520             
1 42907U 17046A   19196.81533799  .00000125  00000-0  00000-0 0  9999
2 42907   0.0238 102.1611 0000963 156.0763  13.6426  1.00270691  7044
TDRS 13                 
1 42915U 17047A   19197.26766922 -.00000104  00000-0  00000+0 0  9992
2 42915   6.0814 330.4104 0015604  95.7498 312.5529  1.00272439  7030
QZS-3 (MICHIBIKI-3)     
1 42917U 17048A   19197.04703656 -.00000360  00000-0  00000+0 0  9990
2 42917   0.0802 136.8082 0002383 348.7188 311.9666  1.00267687  7026
AMAZONAS 5              
1 42934U 17053A   19196.89895407 -.00000293  00000-0  00000-0 0  9999
2 42934   0.0279 331.4767 0002991 117.3555 107.2093  1.00270219  6742
ASIASAT 9               
1 42942U 17057A   19197.54860192 -.00000371  00000-0  00000+0 0  9994
2 42942   0.0066  57.5015 0002784  49.3340 146.8254  1.00269985  6592
